0 COSMOS 2251 DEB
1 34009U 93036GU  13282.06510684  .00000161  00000-0  71131-4 0  8054
2 34009 074.0381 163.0823 0029431 234.2195 194.5344 14.30652388243064
0 COSMOS 2251 DEB
1 34009U 93036GU  13287.10978510  .00000232  00000-0  98408-4 0  8077
2 34009 074.0371 153.9031 0029249 224.0117 256.2110 14.30654248243783
0 COSMOS 2251 DEB
1 34009U 93036GU  13289.68447721  .00000224  00000-0  95192-4 0  8086
2 34009 074.0365 149.2178 0029189 218.7928 196.7064 14.30656388244154
0 COSMOS 2251 DEB
1 34009U 93036GU  13291.71448723  .00000217  00000-0  92448-4 0  8090
2 34009 074.0365 145.5238 0029105 214.6764 211.9292 14.30657413244446
0 COSMOS 2251 DEB
1 34009U 93036GU  13294.03174197  .00000247  00000-0  10411-3 0  8103
2 34009 074.0365 141.3070 0029006 209.9404 266.6044 14.30658454244776
